{"type":"FeatureCollection", "features": [
{"type":"Feature","geometry":{"type":"Point","coordinates":[103.82131180103255,1.2771408923480405]},"properties":{"PLN_AREA_N":"BUKIT MERAH"}},
{"type":"Feature","geometry":{"type":"Point","coordinates":[103.84155622747343,1.2840075952393517]},"properties":{"PLN_AREA_N":"OUTRAM"}},
{"type":"Feature","geometry":{"type":"Point","coordinates":[103.85569152159918,1.2902394356832696]},"properties":{"PLN_AREA_N":"DOWNTOWN CORE"}},
{"type":"Feature","geometry":{"type":"Point","coordinates":[103.86572460182113,1.2802663118994881]},"properties":{"PLN_AREA_N":"MARINA SOUTH"}},
{"type":"Feature","geometry":{"type":"Point","coordinates":[103.87165549562518,1.2886787610642951]},"properties":{"PLN_AREA_N":"MARINA EAST"}},
{"type":"Feature","geometry":{"type":"Point","coordinates":[103.83579657110633,1.296284683437419]},"properties":{"PLN_AREA_N":"RIVER VALLEY"}},
{"type":"Feature","geometry":{"type":"Point","coordinates":[103.84270295139802,1.290337876327829]},"properties":{"PLN_AREA_N":"SINGAPORE RIVER"}},
{"type":"Feature","geometry":{"type":"Point","coordinates":[103.6730658949712,1.2525367602052504]},"properties":{"PLN_AREA_N":"WESTERN ISLANDS"}},
{"type":"Feature","geometry":{"type":"Point","coordinates":[103.84682237744991,1.2958354737306945]},"properties":{"PLN_AREA_N":"MUSEUM"}},
{"type":"Feature","geometry":{"type":"Point","coordinates":[103.78684059188595,1.2924627576023229]},"properties":{"PLN_AREA_N":"QUEENSTOWN"}},
{"type":"Feature","geometry":{"type":"Point","coordinates":[103.89594508857398,1.3018638957273296]},"properties":{"PLN_AREA_N":"MARINE PARADE"}},
{"type":"Feature","geometry":{"type":"Point","coordinates":[103.83502023540804,1.24612882442594]},"properties":{"PLN_AREA_N":"SOUTHERN ISLANDS"}},
{"type":"Feature","geometry":{"type":"Point","coordinates":[103.85889051146727,1.271693656937016]},"properties":{"PLN_AREA_N":"STRAITS VIEW"}},
{"type":"Feature","geometry":{"type":"Point","coordinates":[103.8538834052797,1.3064657743408012]},"properties":{"PLN_AREA_N":"ROCHOR"}},
{"type":"Feature","geometry":{"type":"Point","coordinates":[103.81428719016236,1.3099605406244628]},"properties":{"PLN_AREA_N":"TANGLIN"}},
{"type":"Feature","geometry":{"type":"Point","coordinates":[103.84007161887762,1.3077732825486355]},"properties":{"PLN_AREA_N":"NEWTON"}},
{"type":"Feature","geometry":{"type":"Point","coordinates":[103.76096143201283,1.3159285212552365]},"properties":{"PLN_AREA_N":"CLEMENTI"}},
{"type":"Feature","geometry":{"type":"Point","coordinates":[103.92792506754768,1.3235061224226938]},"properties":{"PLN_AREA_N":"BEDOK"}},
{"type":"Feature","geometry":{"type":"Point","coordinates":[103.67263257025905,1.317463987571398]},"properties":{"PLN_AREA_N":"PIONEER"}},
{"type":"Feature","geometry":{"type":"Point","coordinates":[103.73484206978665,1.3156569017539264]},"properties":{"PLN_AREA_N":"JURONG EAST"}},
{"type":"Feature","geometry":{"type":"Point","coordinates":[103.86482980848831,1.314469812264343]},"properties":{"PLN_AREA_N":"KALLANG"}},
{"type":"Feature","geometry":{"type":"Point","coordinates":[103.83543881460044,1.3022518767355624]},"properties":{"PLN_AREA_N":"ORCHARD"}},
{"type":"Feature","geometry":{"type":"Point","coordinates":[103.89105999522334,1.3215564242304378]},"properties":{"PLN_AREA_N":"GEYLANG"}},
{"type":"Feature","geometry":{"type":"Point","coordinates":[103.86102246564906,1.3369786372040875]},"properties":{"PLN_AREA_N":"TOA PAYOH"}},
{"type":"Feature","geometry":{"type":"Point","coordinates":[103.79070028495765,1.3301583755404973]},"properties":{"PLN_AREA_N":"BUKIT TIMAH"}},
{"type":"Feature","geometry":{"type":"Point","coordinates":[103.63311416189023,1.2906142905111055]},"properties":{"PLN_AREA_N":"TUAS"}},
{"type":"Feature","geometry":{"type":"Point","coordinates":[103.70671343329248,1.3422198808108488]},"properties":{"PLN_AREA_N":"JURONG WEST"}},
{"type":"Feature","geometry":{"type":"Point","coordinates":[103.84251213337278,1.3803688502795897]},"properties":{"PLN_AREA_N":"ANG MO KIO"}},
{"type":"Feature","geometry":{"type":"Point","coordinates":[103.86664149317771,1.353499105971892]},"properties":{"PLN_AREA_N":"SERANGOON"}},
{"type":"Feature","geometry":{"type":"Point","coordinates":[103.73018611368754,1.3636082583174947]},"properties":{"PLN_AREA_N":"TENGAH"}},
{"type":"Feature","geometry":{"type":"Point","coordinates":[103.70417753361627,1.319379230806634]},"properties":{"PLN_AREA_N":"BOON LAY"}},
{"type":"Feature","geometry":{"type":"Point","coordinates":[103.82880983313005,1.3302582194137442]},"properties":{"PLN_AREA_N":"NOVENA"}},
{"type":"Feature","geometry":{"type":"Point","coordinates":[103.94860299723018,1.3505290461542194]},"properties":{"PLN_AREA_N":"TAMPINES"}},
{"type":"Feature","geometry":{"type":"Point","coordinates":[103.8895185565921,1.365955519364951]},"properties":{"PLN_AREA_N":"HOUGANG"}},
{"type":"Feature","geometry":{"type":"Point","coordinates":[104.02051920585265,1.3218919526710777]},"properties":{"PLN_AREA_N":"CHANGI BAY"}},
{"type":"Feature","geometry":{"type":"Point","coordinates":[103.91666821198149,1.3589332838528276]},"properties":{"PLN_AREA_N":"PAYA LEBAR"}},
{"type":"Feature","geometry":{"type":"Point","coordinates":[103.75356982649022,1.3558815633578591]},"properties":{"PLN_AREA_N":"BUKIT BATOK"}},
{"type":"Feature","geometry":{"type":"Point","coordinates":[103.94877464556777,1.3749649132751907]},"properties":{"PLN_AREA_N":"PASIR RIS"}},
{"type":"Feature","geometry":{"type":"Point","coordinates":[103.77119936903853,1.3715524233598009]},"properties":{"PLN_AREA_N":"BUKIT PANJANG"}},
{"type":"Feature","geometry":{"type":"Point","coordinates":[103.74859367771205,1.3827157321362458]},"properties":{"PLN_AREA_N":"CHOA CHU KANG"}},
{"type":"Feature","geometry":{"type":"Point","coordinates":[103.8421805991142,1.3546449510803438]},"properties":{"PLN_AREA_N":"BISHAN"}},
{"type":"Feature","geometry":{"type":"Point","coordinates":[103.84000421952504,1.4138376824886354]},"properties":{"PLN_AREA_N":"YISHUN"}},
{"type":"Feature","geometry":{"type":"Point","coordinates":[103.91039033254451,1.4059385322708922]},"properties":{"PLN_AREA_N":"PUNGGOL"}},
{"type":"Feature","geometry":{"type":"Point","coordinates":[103.81446215278336,1.4271808241910118]},"properties":{"PLN_AREA_N":"MANDAI"}},
{"type":"Feature","geometry":{"type":"Point","coordinates":[103.99780693521444,1.350652819232014]},"properties":{"PLN_AREA_N":"CHANGI"}},
{"type":"Feature","geometry":{"type":"Point","coordinates":[103.89533672641343,1.3899735446779298]},"properties":{"PLN_AREA_N":"SENGKANG"}},
{"type":"Feature","geometry":{"type":"Point","coordinates":[103.87739986625681,1.4146775284461568]},"properties":{"PLN_AREA_N":"SELETAR"}},
{"type":"Feature","geometry":{"type":"Point","coordinates":[103.75710717090308,1.4183696484213284]},"properties":{"PLN_AREA_N":"SUNGEI KADUT"}},
{"type":"Feature","geometry":{"type":"Point","coordinates":[103.78969412097341,1.4408582582885567]},"properties":{"PLN_AREA_N":"WOODLANDS"}},
{"type":"Feature","geometry":{"type":"Point","coordinates":[103.81457434179562,1.4542885472933929]},"properties":{"PLN_AREA_N":"SEMBAWANG"}},
{"type":"Feature","geometry":{"type":"Point","coordinates":[103.69055284105339,1.3873423630636568]},"properties":{"PLN_AREA_N":"WESTERN WATER CATCHMENT"}},
{"type":"Feature","geometry":{"type":"Point","coordinates":[103.79799347757073,1.377091393938115]},"properties":{"PLN_AREA_N":"CENTRAL WATER CATCHMENT"}},
{"type":"Feature","geometry":{"type":"Point","coordinates":[103.84892684188102,1.4463362215689746]},"properties":{"PLN_AREA_N":"SIMPANG"}},
{"type":"Feature","geometry":{"type":"Point","coordinates":[103.71977659570715,1.4325375825308715]},"properties":{"PLN_AREA_N":"LIM CHU KANG"}},
{"type":"Feature","geometry":{"type":"Point","coordinates":[104.05552158358246,1.3954939999497622]},"properties":{"PLN_AREA_N":"NORTH-EASTERN ISLANDS"}}
]}